{
"type": "FeatureCollection",
"name": "lahore_boundary_utm",
"crs": { "type": "name", "properties": { "name": "urn:ogc:def:crs:EPSG::32642" } },
"features": [
{ "type": "Feature", "properties": { "GID_3": "PAK.7.5.2_1", "GID_0": "PAK", "COUNTRY": "Pakistan", "GID_1": "PAK.7_1", "NAME_1": "Punjab", "NL_NAME_1": "NA", "GID_2": "PAK.7.5_1", "NAME_2": "Lahore", "NL_NAME_2": "NA", "NAME_3": "Lahore", "VARNAME_3": "NA", "NL_NAME_3": "NA", "TYPE_3": "District", "ENGTYPE_3": "District", "CC_3": "NA", "HASC_3": "NA" }, "geometry": { "type": "MultiPolygon", "coordinates": [ [ [ [ 1023039.364832618040964, 3524959.194488500710577 ], [ 1023063.308206065790728, 3522989.417710079811513 ], [ 1023329.99466651014518, 3522423.916619074065238 ], [ 1024428.175085673341528, 3520297.162183633539826 ], [ 1029440.332334903883748, 3512234.323697313200682 ], [ 1030957.734646249446087, 3508848.610423714388162 ], [ 1031886.632542926934548, 3506167.767420595046133 ], [ 1031989.518712340039201, 3505649.617551198229194 ], [ 1031838.488153530168347, 3505619.590958681888878 ], [ 1031875.182654487667605, 3505276.232702593784779 ], [ 1032070.535437642363831, 3505186.028916917275637 ], [ 1032448.463300856063142, 3503211.931629135739058 ], [ 1032364.13053002115339, 3502439.158998396247625 ], [ 1031935.546332479454577, 3501682.14773127483204 ], [ 1031423.63654481805861, 3501433.185073867905885 ], [ 1030371.506870514596812, 3501301.403634019661695 ], [ 1029668.815712427254766, 3500864.609027282800525 ], [ 1029375.33444419328589, 3500259.417433511000127 ], [ 1029400.820566474460065, 3499759.58827365282923 ], [ 1029603.599372111260891, 3499524.932240292895585 ], [ 1029537.211936478037387, 3499142.915607020724565 ], [ 1028922.808320649783127, 3498655.027471436187625 ], [ 1030270.141273756162263, 3498055.54290262889117 ], [ 1030530.832270371145569, 3498369.533726425375789 ], [ 1031254.140782751375809, 3498406.498200556728989 ], [ 1031719.769871172262356, 3498630.77996363863349 ], [ 1032483.331981499446556, 3498068.508224693126976 ], [ 1032664.654915203223936, 3497509.826642411295325 ], [ 1033126.258794387802482, 3497255.076377841178328 ], [ 1033610.170784867368639, 3497123.994075857568532 ], [ 1034785.353207661653869, 3497284.632148640695959 ], [ 1034271.521292384481058, 3496512.01949529023841 ], [ 1034282.938499891082756, 3496289.864755006041378 ], [ 1035266.921092956443317, 3495716.793183458037674 ], [ 1036414.672381481854245, 3494561.953303727786988 ], [ 1036322.959172419505194, 3493933.528511211276054 ], [ 1035915.63664376840461, 3493500.460104483179748 ], [ 1035031.394408017047681, 3490269.748692917637527 ], [ 1032257.471827819943428, 3487176.502491152845323 ], [ 1030193.01925756840501, 3480801.817674609366804 ], [ 1028761.858531480538659, 3481319.510544621851295 ], [ 1026067.625948676024564, 3481873.918703273870051 ], [ 1024456.770409196731634, 3481792.939733440056443 ], [ 1022296.718892571050674, 3482185.788968062028289 ], [ 1020223.694291329476982, 3481603.596985637675971 ], [ 1017847.53818109293934, 3480194.088325059507042 ], [ 1016477.866438926081173, 3477743.841362481936812 ], [ 1016978.804774148389697, 3475341.550701438449323 ], [ 1016538.765019064070657, 3474184.266397262923419 ], [ 1012879.046903365757316, 3473559.169918526429683 ], [ 1009142.350497190258466, 3470972.521619913168252 ], [ 1006040.289286986924708, 3471056.133696928154677 ], [ 1003409.21623786969576, 3472287.419382133986801 ], [ 1000842.014983379980549, 3471797.153711408376694 ], [ 998372.056245710235089, 3470666.662094925064594 ], [ 996258.631783413002267, 3469064.020272140391171 ], [ 994583.644787086639553, 3469507.991960648447275 ], [ 992868.138589017908089, 3470818.32024865783751 ], [ 991985.717909751459956, 3471900.845289437100291 ], [ 990337.796687194379047, 3472190.85744566982612 ], [ 988894.282617621123791, 3471789.593274894636124 ], [ 987728.390086275991052, 3472814.6578055084683 ], [ 986566.608928807079792, 3473138.978971125092357 ], [ 985268.730348215438426, 3472277.633306545205414 ], [ 983493.25486211059615, 3472028.674641954246908 ], [ 981549.395501533988863, 3472740.292420920915902 ], [ 979478.322093079565093, 3472689.824583929497749 ], [ 977916.555193589185365, 3474042.584396890364587 ], [ 976556.225031136535108, 3475805.201914618257433 ], [ 976803.723501128610224, 3476662.026819013524801 ], [ 977577.951472974033095, 3477275.879899049643427 ], [ 977506.884593868046068, 3477995.816714379936457 ], [ 976102.990721927490085, 3480724.352957806084305 ], [ 976918.957746736472473, 3481462.493294652551413 ], [ 979061.801535813254304, 3482406.14199108723551 ], [ 980368.524530311115086, 3485125.408805365208536 ], [ 979191.885295736137778, 3486640.113870325963944 ], [ 980129.686035746126436, 3487617.885144670493901 ], [ 985449.29622493754141, 3488743.357268014922738 ], [ 987480.502350821858272, 3487747.652580884285271 ], [ 990223.602577161509544, 3491103.550482280552387 ], [ 991844.011458991328254, 3492749.134933166205883 ], [ 990944.273820097907446, 3495844.937686217483133 ], [ 991170.659649929963052, 3497914.46079962560907 ], [ 994458.392640445847064, 3500151.665301783476025 ], [ 999724.690996827674098, 3507583.115393661428243 ], [ 1001277.414014729904011, 3510340.753002129960805 ], [ 1003754.314761511282995, 3516973.070108126383275 ], [ 1005692.588862686417997, 3518214.481598312500864 ], [ 1008942.216161801130511, 3519298.337444858625531 ], [ 1012043.284270415548235, 3521255.479534844867885 ], [ 1014977.248906318913214, 3522537.366100754123181 ], [ 1020140.069763182429597, 3524333.444406634196639 ], [ 1023039.364832618040964, 3524959.194488500710577 ] ] ] ] } }
]
}
